*******************************************************************************
Ephemeris / WWW_USER Mon Mar 26 20:32:28 2018 Pasadena, USA      / Horizons    
*******************************************************************************
Target body name: Neptune (899)                   {source: nep081xl}
Center body name: Neptune Barycenter (8)          {source: DE431mx}
Center-site name: BODY CENTER
*******************************************************************************
Start time      : A.D. 2000-Jan-01 00:00:00.0000 TDB
Stop  time      : A.D. 2005-Jan-01 00:00:00.0000 TDB
Step-size       : 7200 minutes
*******************************************************************************
Center geodetic : 0.00000000,0.00000000,0.0000000 {E-lon(deg),Lat(deg),Alt(km)}
Center cylindric: 0.00000000,0.00000000,0.0000000 {E-lon(deg),Dxy(km),Dz(km)}
Center radii    : (undefined)                                                  
Output units    : AU-D                                                         
Output type     : GEOMETRIC cartesian states
Output format   : 2 (position and velocity)
Reference frame : ICRF/J2000.0                                                 
Coordinate systm: Ecliptic and Mean Equinox of Reference Epoch                 
*******************************************************************************
JDTDB
   X     Y     Z
   VX    VY    VZ
*******************************************************************************
$$SOE
2451964.500000000 = A.D. 2001-Feb-24 00:00:00.0000 TDB 
  -4.387432853031122E-07 -1.090323198195652E-07  2.020863644249234E-07
   5.806018848167102E-08  4.000468111422983E-07  3.418962396570311E-07
2451969.500000000 = A.D. 2001-Mar-01 00:00:00.0000 TDB 
  -3.034249309339311E-07 -3.661521096030698E-07 -1.381519392162355E-07
  -3.437378111206541E-07  1.427849044511325E-07  3.765118141694002E-07
2451974.500000000 = A.D. 2001-Mar-06 00:00:00.0000 TDB 
   7.958145806673265E-08 -3.243499750731450E-07 -3.656246986495533E-07
  -4.649138882785676E-07 -2.310622434930374E-07  1.037838717253299E-07
2451979.500000000 = A.D. 2001-Mar-11 00:00:00.0000 TDB 
   3.976033566884901E-07 -1.773991612765338E-08 -2.946441512191649E-07
  -2.065583310359759E-07 -4.162831013990772E-07 -2.536698973707768E-07
2451984.500000000 = A.D. 2001-Mar-16 00:00:00.0000 TDB 
   3.910305216471246E-07  3.033670498255944E-07  1.685610170597886E-08
   2.204052684978423E-07 -2.616488524909959E-07 -4.040608514857765E-07
2451989.500000000 = A.D. 2001-Mar-21 00:00:00.0000 TDB 
   6.524771736370546E-08  3.768148263886673E-07  3.146043806394115E-07
   4.674186222539828E-07  1.066015292543129E-07 -2.246245535436830E-07
2451994.500000000 = A.D. 2001-Mar-26 00:00:00.0000 TDB 
  -3.137823149679502E-07  1.426335360717184E-07  3.555553119343584E-07
   3.328572618985165E-07  3.878343356444036E-07  1.381685754599976E-07
2451999.500000000 = A.D. 2001-Mar-31 00:00:00.0000 TDB 
  -4.366484934614550E-07 -2.080037146389764E-07  1.062763312082639E-07
  -7.341703237360425E-08  3.524517080961219E-07  3.881887395638448E-07
2452004.500000000 = A.D. 2001-Apr-05 00:00:00.0000 TDB 
  -2.030614024609291E-07 -3.888389424064707E-07 -2.297592498572728E-07
  -4.197430117503293E-07  2.931982200839781E-08  3.213418813647534E-07
2452009.500000000 = A.D. 2001-Apr-10 00:00:00.0000 TDB 
   1.962789738971054E-07 -2.522269581912431E-07 -3.782507791909321E-07
  -4.234035522688764E-07 -3.177646519731801E-07 -7.815814287030105E-09
2452014.500000000 = A.D. 2001-Apr-15 00:00:00.0000 TDB 
   4.353696728430415E-07  9.031486327761262E-08 -2.179800932419553E-07
  -8.142345406715434E-08 -4.054358315812651E-07 -3.306027782185582E-07
2452019.500000000 = A.D. 2001-Apr-20 00:00:00.0000 TDB 
   3.190399106386948E-07  3.591369196399516E-07  1.202313505814508E-07
   3.270067545073559E-07 -1.621041614339921E-07 -3.835254244868722E-07
2452024.500000000 = A.D. 2001-Apr-25 00:00:00.0000 TDB 
  -5.772518960976362E-08  3.347673289201860E-07  3.603074791386834E-07
   4.684667392072401E-07  2.135754109374061E-07 -1.233844960295443E-07
2452029.500000000 = A.D. 2001-Apr-30 00:00:00.0000 TDB 
  -3.873501673833152E-07  3.709317303327622E-08  3.062796181464610E-07
   2.275042888045158E-07  4.149068087010061E-07  2.374758244232398E-07
2452034.500000000 = A.D. 2001-May-05 00:00:00.0000 TDB 
  -4.007579751505673E-07 -2.908765774662720E-07  2.241417609113814E-09
  -1.991671711030232E-07  2.775155838821809E-07  4.045011302564470E-07
2452039.500000000 = A.D. 2001-May-10 00:00:00.0000 TDB 
  -8.701546783267176E-08 -3.813844212688442E-07 -3.036322776355048E-07
  -4.632346601042548E-07 -8.645168546614803E-08  2.413399193426920E-07
2452044.500000000 = A.D. 2001-May-15 00:00:00.0000 TDB 
   2.977445050160117E-07 -1.605264711547175E-07 -3.616587028355193E-07
  -3.491355502426161E-07 -3.798549398591689E-07 -1.188298269569333E-07
2452049.500000000 = A.D. 2001-May-20 00:00:00.0000 TDB 
   4.394254417940509E-07  1.913987310200570E-07 -1.244649275580473E-07
   4.997060294395804E-08 -3.631501081761513E-07 -3.820084288859474E-07
2452054.500000000 = A.D. 2001-May-25 00:00:00.0000 TDB 
   2.223804913793944E-07  3.870778431283258E-07  2.143349802532055E-07
   4.082605431952820E-07 -4.996291988197687E-08 -3.333598430807998E-07
2452059.500000000 = A.D. 2001-May-30 00:00:00.0000 TDB 
  -1.761881696397067E-07  2.667527172973273E-07  3.781850747190821E-07
   4.332568761245261E-07  3.040217354404939E-07 -1.259765848114490E-08
2452064.500000000 = A.D. 2001-Jun-04 00:00:00.0000 TDB 
  -4.309124462552119E-07 -7.135407077285031E-08  2.333363366202848E-07
   1.045780363645689E-07  4.098184622541194E-07  3.184547199423470E-07
2452069.500000000 = A.D. 2001-Jun-09 00:00:00.0000 TDB 
  -3.338615088870825E-07 -3.512211559405189E-07 -1.019830599788106E-07
  -3.094590253997066E-07  1.810405626890317E-07  3.895684858850400E-07
2452074.500000000 = A.D. 2001-Jun-14 00:00:00.0000 TDB 
   3.572553687998254E-08 -3.443574193573008E-07 -3.540611682973180E-07
  -4.708568708970035E-07 -1.955539878755397E-07  1.426817995934839E-07
2452079.500000000 = A.D. 2001-Jun-19 00:00:00.0000 TDB 
   3.761298076797965E-07 -5.635296760153622E-08 -3.171258729379201E-07
  -2.478699610545020E-07 -4.125121665546200E-07 -2.206821034146597E-07
2452084.500000000 = A.D. 2001-Jun-24 00:00:00.0000 TDB 
   4.094678583559822E-07  2.776722033130369E-07 -2.131986341468111E-08
   1.774514424955451E-07 -2.926954290467393E-07 -4.039115520501945E-07
2452089.500000000 = A.D. 2001-Jun-29 00:00:00.0000 TDB 
   1.085424388441639E-07  3.850161226878241E-07  2.918964998623704E-07
   4.578870755848899E-07  6.608392111622464E-08 -2.574352453594894E-07
2452094.500000000 = A.D. 2001-Jul-04 00:00:00.0000 TDB 
  -2.809737531513222E-07  1.780365226183563E-07  3.668514485377854E-07
   3.645259127349891E-07  3.709232017272638E-07  9.917978572300454E-08
2452099.500000000 = A.D. 2001-Jul-09 00:00:00.0000 TDB 
  -4.411078680221273E-07 -1.743007962397230E-07  1.423567253920082E-07
  -2.640088556269043E-08  3.729547342512273E-07  3.748469234955476E-07
2452104.500000000 = A.D. 2001-Jul-14 00:00:00.0000 TDB 
  -2.411469428775292E-07 -3.843518710291801E-07 -1.983458445435774E-07
  -3.957610224647219E-07  7.050030065512762E-08  3.445391519576506E-07
2452109.500000000 = A.D. 2001-Jul-19 00:00:00.0000 TDB 
   1.556592671319818E-07 -2.806205113095619E-07 -3.771469976086548E-07
  -4.420320694199803E-07 -2.895263341176651E-07  3.298579585106096E-08
2452114.500000000 = A.D. 2001-Jul-24 00:00:00.0000 TDB 
   4.253752551265032E-07  5.222021618352202E-08 -2.480877720523734E-07
  -1.274536384847880E-07 -4.131949515408936E-07 -3.055025677100154E-07
2452119.500000000 = A.D. 2001-Jul-29 00:00:00.0000 TDB 
   3.478278826655716E-07  3.424421092561854E-07  8.348839867341698E-08
   2.911531924689504E-07 -1.995272371625883E-07 -3.946163692983406E-07
2452124.500000000 = A.D. 2001-Aug-03 00:00:00.0000 TDB 
  -1.365769617225469E-08  3.531026693609122E-07  3.469217418332622E-07
   4.720566152662385E-07  1.770405026390273E-07 -1.616126858335364E-07
2452129.500000000 = A.D. 2001-Aug-08 00:00:00.0000 TDB 
  -3.639767765946349E-07  7.549105413325907E-08  3.271778240793468E-07
   2.676046656935732E-07  4.090862590862863E-07  2.033138321010398E-07
2452134.500000000 = A.D. 2001-Aug-13 00:00:00.0000 TDB 
  -4.171581316448993E-07 -2.637634461576253E-07  4.036589473973716E-08
  -1.552919285947806E-07  3.071635798977393E-07  4.022913391994902E-07
2452139.500000000 = A.D. 2001-Aug-18 00:00:00.0000 TDB 
  -1.297995639479055E-07 -3.876923449945869E-07 -2.794016822799563E-07
  -4.514019761141735E-07 -4.553846050957220E-08  2.728874872324410E-07
2452144.500000000 = A.D. 2001-Aug-23 00:00:00.0000 TDB 
   2.635037908999732E-07 -1.951071584966665E-07 -3.711016191368424E-07
  -3.790034087817597E-07 -3.610783555737744E-07 -7.927604761328089E-08
2452149.500000000 = A.D. 2001-Aug-28 00:00:00.0000 TDB 
   4.416796478866352E-07  1.567763961019178E-07 -1.598740136586736E-07
   2.786315191866023E-09 -3.818411561401419E-07 -3.667360383181216E-07
2452154.500000000 = A.D. 2001-Sep-02 00:00:00.0000 TDB 
   2.592872376321624E-07  3.806801986498667E-07  1.818635367417055E-07
   3.822795984736355E-07 -9.086265271425481E-08 -3.548358424052625E-07
2452159.500000000 = A.D. 2001-Sep-07 00:00:00.0000 TDB 
  -1.347587769845426E-07  2.938035630120511E-07  3.751568923142573E-07
   4.496856486497631E-07  2.743032794941891E-07 -5.329139755428043E-08
2452164.500000000 = A.D. 2001-Sep-12 00:00:00.0000 TDB 
  -4.187799929782954E-07 -3.293757471871294E-08  2.622238746046246E-07
   1.500036644600970E-07  4.155433495689953E-07  2.917592229381686E-07
2452169.500000000 = A.D. 2001-Sep-17 00:00:00.0000 TDB 
  -3.609289453786121E-07 -3.328020968514251E-07 -6.475915978913668E-08
  -2.721195202612543E-07  2.175375189196675E-07  3.986632362620069E-07
